[Satellite]
VERSION=1.1
NAME=DMSP 5D-2 F14 (USA 131)
NICKNAME=DMSP 5D-2 F14 (USA 131)
TLE1=1 24753U 97012A   20141.53743752 -.00000003  00000-0  21560-4 0  9996
TLE2=2 24753  99.0226 157.8999 0007686 287.1397  72.8934 14.15889479194264
STATUS=0
